BEIDOU-2 IGSO-1         
1 36828U 10036A   26062.70852657 -.00000147  00000+0  00000+0 0  9994
2 36828  54.2923 163.9165 0054007 218.9612 138.7891  1.00252560 57033
BEIDOU-2 G4             
1 37210U 10057A   26062.90347635 -.00000124  00000+0  00000+0 0  9995
2 37210   3.3855  69.5514 0009097 210.5609   6.8026  1.00272039 56239
BEIDOU-2 IGSO-2         
1 37256U 10068A   26062.54925478 -.00000175  00000+0  00000+0 0  9990
2 37256  47.7339 273.1369 0047361 212.9625 340.0691  1.00258892 55735
BEIDOU-2 IGSO-3         
1 37384U 11013A   26058.90884667 -.00000154  00000+0  00000+0 0  9999
2 37384  62.2642  41.1818 0035029 190.8154 358.7681  1.00294022 54567
BEIDOU-2 IGSO-4         
1 37763U 11038A   26062.71737726 -.00000114  00000+0  00000+0 0  9990
2 37763  54.5893 166.6259 0154374 230.9657 116.5987  1.00265642 53587
BEIDOU-2 IGSO-5         
1 37948U 11073A   26062.55653834 -.00000150  00000+0  00000+0 0  9993
2 37948  47.8694 272.8493 0108574 221.0989 322.8910  1.00272725 52077
BEIDOU-2 G5             
1 38091U 12008A   26062.95469660  .00000044  00000+0  00000+0 0  9999
2 38091   3.3114  70.3138 0014112 250.2593 243.6089  1.00276204 51316
BEIDOU-2 M3             
1 38250U 12018A   26062.40807551 -.00000060  00000+0  00000+0 0  9991
2 38250  55.8472 308.4420 0021171 279.5872  80.2341  1.86229789 93972
BEIDOU-2 M4             
1 38251U 12018B   26061.80325391 -.00000055  00000+0  00000+0 0  9996
2 38251  55.7490 307.6853 0012856 286.3325  73.5869  1.86229510 93963
BEIDOU-2 M6             
1 38775U 12050B   26060.97652929 -.00000006  00000+0  00000+0 0  9996
2 38775  56.4507  66.4378 0013903 341.6100  18.3756  1.86230866 91318
BEIDOU-2 G6             
1 38953U 12059A   26063.10227411 -.00000185  00000+0  00000+0 0  9993
2 38953   4.1554  74.6500 0010672 304.2337 263.7683  1.00269514 48857
BEIDOU-3S IGSO-1S       
1 40549U 15019A   26062.60351340 -.00000161  00000+0  00000+0 0  9993
2 40549  49.3919 296.7335 0035838 190.4162 347.9683  1.00273864 40010
BEIDOU-3S M2S           
1 40748U 15037A   26062.54429301 -.00000057  00000+0  00000+0 0  9994
2 40748  54.9636 305.6850 0008875 278.3355  81.6239  1.86231824 72155
BEIDOU-3S M1S           
1 40749U 15037B   26061.69084880 -.00000053  00000+0  00000+0 0  9995
2 40749  54.9610 305.7025 0004647  29.9008 330.1863  1.86253746 72142
BEIDOU-2 IGSO-6         
1 41434U 16021A   26062.89079911 -.00000149  00000+0  00000+0 0  9999
2 41434  60.0859  39.0829 0059817 233.4373 305.5340  1.00278539 36422
BEIDOU-2 G7             
1 41586U 16037A   26062.96492332 -.00000365  00000+0  00000+0 0  9998
2 41586   1.4606  68.1966 0007531 341.8195 209.5827  1.00267581  5835
BEIDOU-3 M1             
1 43001U 17069A   26062.35283419 -.00000016  00000+0  00000+0 0  9998
2 43001  56.6002  66.5689 0012408 309.5374  50.3827  1.86230953 56637
